[{"OBJECT_NAME":"STARLINK-2673","OBJECT_ID":"2021-044M","EPOCH":"2026-03-09T12:06:57.695616","MEAN_MOTION":15.30166289,"ECCENTRICITY":0.00012955,"INCLINATION":53.1601,"RA_OF_ASC_NODE":114.7025,"ARG_OF_PERICENTER":87.225,"MEAN_ANOMALY":272.8899,"EPHEMERIS_TYPE":0,"CLASSIFICATION_TYPE":"U","NORAD_CAT_ID":48649,"ELEMENT_SET_NO":999,"REV_AT_EPOCH":26379,"BSTAR":0.00033198626,"MEAN_MOTION_DOT":9.476e-5,"MEAN_MOTION_DDOT":0},{"OBJECT_NAME":"OBJECT F","OBJECT_ID":"2023-072F","EPOCH":"2026-03-09T23:31:37.259904","MEAN_MOTION":15.29470958,"ECCENTRICITY":0.00062878,"INCLINATION":97.5173,"RA_OF_ASC_NODE":265.798,"ARG_OF_PERICENTER":19.0017,"MEAN_ANOMALY":341.1456,"EPHEMERIS_TYPE":0,"CLASSIFICATION_TYPE":"U","NORAD_CAT_ID":56748,"ELEMENT_SET_NO":999,"REV_AT_EPOCH":15460,"BSTAR":0.00043416252,"MEAN_MOTION_DOT":0.00012341,"MEAN_MOTION_DDOT":0}]
